[{"OBJECT_NAME":"STARLINK-1559","OBJECT_ID":"2020-055BC","EPOCH":"2026-03-09T05:36:23.522976","MEAN_MOTION":15.29461733,"ECCENTRICITY":0.0004229,"INCLINATION":53.0254,"RA_OF_ASC_NODE":76.0659,"ARG_OF_PERICENTER":33.971,"MEAN_ANOMALY":326.1559,"EPHEMERIS_TYPE":0,"CLASSIFICATION_TYPE":"U","NORAD_CAT_ID":46077,"ELEMENT_SET_NO":999,"REV_AT_EPOCH":30951,"BSTAR":0.0014778793,"MEAN_MOTION_DOT":0.00042685,"MEAN_MOTION_DDOT":0},{"OBJECT_NAME":"STARLINK-34986","OBJECT_ID":"2025-259AA","EPOCH":"2026-03-09T22:05:16.194048","MEAN_MOTION":15.27592953,"ECCENTRICITY":8.551e-5,"INCLINATION":42.9931,"RA_OF_ASC_NODE":273.2927,"ARG_OF_PERICENTER":16.5269,"MEAN_ANOMALY":343.561,"EPHEMERIS_TYPE":0,"CLASSIFICATION_TYPE":"U","NORAD_CAT_ID":66446,"ELEMENT_SET_NO":999,"REV_AT_EPOCH":1952,"BSTAR":0.00083905541,"MEAN_MOTION_DOT":0.00022908,"MEAN_MOTION_DDOT":0}]
